GSAT0101 (PRN E11)      
1 37846U 11060A   22056.79999406 -.00000070  00000+0  00000+0 0  9990
2 37846  56.9563  24.3715 0003955 342.9593  17.0155  1.70474878 64312
GSAT0102 (PRN E12)      
1 37847U 11060B   22056.43961338 -.00000069  00000+0  00000+0 0  9993
2 37847  56.9568  24.3809 0005376 322.8850 222.4427  1.70475187 64312
GSAT0103 (PRN E19)      
1 38857U 12055A   22057.42687397 -.00000021  00000+0  00000+0 0  9998
2 38857  55.1053 144.7517 0003892 253.7416 106.2367  1.70473519 58219
GSAT0104 (PRN E20)      
1 38858U 12055B   22056.81058977 -.00000019  00000+0  00000+0 0  9994
2 38858  55.1049 144.7702 0001632 232.1104 127.8961  1.70473775 58208
GSAT0201 (PRN E18)      
1 40128U 14050A   22053.94135731 -.00000085  00000+0  00000+0 0  9992
2 40128  50.3518 336.8467 1630823 119.9582 257.2254  1.85519083 49093
GSAT0202 (PRN E14)      
1 40129U 14050B   22055.28077336 -.00000088  00000+0  00000+0 0  9991
2 40129  50.3776 335.8503 1627837 120.8131 256.2172  1.85519700 51257
GSAT0203 (PRN E26)      
1 40544U 15017A   22057.16771924 -.00000073  00000+0  00000+0 0  9993
2 40544  56.7517  24.4099 0004556 278.7554  81.1800  1.70475614 42409
GSAT0204 (PRN E22)      
1 40545U 15017B   22056.24716605 -.00000068  00000+0  00000+0 0  9991
2 40545  56.7572  24.4470 0003836 268.6620  91.2840  1.70475414  5432
GSAT0205 (PRN E24)      
1 40889U 15045A   22056.01437858  .00000056  00000+0  00000+0 0  9994
2 40889  55.6982 265.0668 0006299  25.6663 334.4071  1.70475005 40198
GSAT0206 (PRN E30)      
1 40890U 15045B   22056.82169225  .00000055  00000+0  00000+0 0  9994
2 40890  55.6967 265.0404 0004450  23.0747 336.9885  1.70473218 40232
GSAT0209 (PRN E09)      
1 41174U 15079A   22054.06396079  .00000003  00000+0  00000+0 0  9993
2 41174  55.1207 144.5469 0003539 304.8669  55.1310  1.70473589 37928
GSAT0208 (PRN E08)      
1 41175U 15079B   22054.28354475  .00000001  00000+0  00000+0 0  9990
2 41175  55.1189 144.5397 0002810 302.9292  57.0740  1.70474873 38342
GSAT0211 (PRN E02)      
1 41549U 16030A   22056.74938884  .00000055  00000+0  00000+0 0  9997
2 41549  55.8421 264.9638 0004424 357.6487   2.3924  1.70474709 35863
GSAT0210 (PRN E01)      
1 41550U 16030B   22055.86891507  .00000056  00000+0  00000+0 0  9992
2 41550  55.8421 264.9894 0002643 339.6797  20.3517  1.70474808 35840
GSAT0207 (PRN E07)      
1 41859U 16069A   22054.94296759 -.00000005  00000+0  00000+0 0  9997
2 41859  54.7805 144.7319 0003737 287.5859  72.4000  1.70473571 32565
GSAT0212 (PRN E03)      
1 41860U 16069B   22055.96954472 -.00000014  00000+0  00000+0 0  9995
2 41860  54.7782 144.7012 0002344 314.5431  45.4606  1.70473577 32839
GSAT0213 (PRN E04)      
1 41861U 16069C   22056.92159817 -.00000019  00000+0  00000+0 0  9998
2 41861  54.7808 144.6799 0003780 262.3414  97.6367  1.70473595 32840
GSAT0214 (PRN E05)      
1 41862U 16069D   22056.48210385 -.00000017  00000+0  00000+0 0  9996
2 41862  54.7791 144.6867 0002856 263.9081  96.0810  1.70473708 32839
GSAT0215 (PRN E21)      
1 43055U 17079A   22056.97293419  .00000055  00000+0  00000+0 0  9998
2 43055  55.8173 264.7916 0002048 347.8576  12.1805  1.70473955 26182
GSAT0216 (PRN E25)      
1 43056U 17079B   22056.09206831  .00000056  00000+0  00000+0 0  9995
2 43056  55.8180 264.8156 0003208 317.3399  42.6772  1.70474083 26153
GSAT0217 (PRN E27)      
1 43057U 17079C   22057.48545274  .00000053  00000+0  00000+0 0  9994
2 43057  55.8155 264.7771 0003528 335.0205  25.0055  1.70473968 26190
GSAT0218 (PRN E31)      
1 43058U 17079D   22055.94569904  .00000057  00000+0  00000+0 0  9994
2 43058  55.8165 264.8170 0003354 308.3375  51.6741  1.70474017 26164
GSAT0221 (PRN E15)      
1 43564U 18060A   22056.43024910 -.00000068  00000+0  00000+0 0  9998
2 43564  57.1342  24.2170 0005431 290.6528  69.2780  1.70475460 22355
GSAT0222 (PRN E33)      
1 43565U 18060B   22056.65009243 -.00000069  00000+0  00000+0 0  9996
2 43565  57.1364  24.2113 0005219 298.2740  61.6617  1.70475430 22409
GSAT0219 (PRN E36)      
1 43566U 18060C   22055.11091499 -.00000063  00000+0  00000+0 0  9995
2 43566  57.1363  24.2550 0004921 299.0817  60.8609  1.70475465 22351
GSAT0220 (PRN E13)      
1 43567U 18060D   22056.50412159 -.00000069  00000+0  00000+0 0  9996
2 43567  57.1369  24.2179 0004917 295.4303  64.5077  1.70475193 22369
GSAT0223                
1 49809U 21116A   22056.66018782 -.00000070  00000+0  00000+0 0  9990
2 49809  57.1295  24.1124 0001852 263.0482 282.6045  1.70475337  1371
GSAT0224                
1 49810U 21116B   22056.47656584 -.00000069  00000+0  00000+0 0  9997
2 49810  57.1304  24.1153 0001569 283.9195 261.5347  1.70475342  1392
